[{"OBJECT_NAME":"STARLINK-6205","OBJECT_ID":"2023-083Y","EPOCH":"2026-03-09T22:00:01.999584","MEAN_MOTION":15.14035964,"ECCENTRICITY":0.00018199,"INCLINATION":43.0003,"RA_OF_ASC_NODE":79.6562,"ARG_OF_PERICENTER":276.7987,"MEAN_ANOMALY":125.782,"EPHEMERIS_TYPE":0,"CLASSIFICATION_TYPE":"U","NORAD_CAT_ID":56898,"ELEMENT_SET_NO":999,"REV_AT_EPOCH":557,"BSTAR":0.0035526049,"MEAN_MOTION_DOT":0.00066103,"MEAN_MOTION_DDOT":0},{"OBJECT_NAME":"SL-24 R\/B","OBJECT_ID":"2015-014C","EPOCH":"2026-03-09T13:33:24.155424","MEAN_MOTION":13.7773905,"ECCENTRICITY":0.0610763,"INCLINATION":97.3421,"RA_OF_ASC_NODE":264.7198,"ARG_OF_PERICENTER":166.3876,"MEAN_ANOMALY":195.462,"EPHEMERIS_TYPE":0,"CLASSIFICATION_TYPE":"U","NORAD_CAT_ID":40541,"ELEMENT_SET_NO":999,"REV_AT_EPOCH":55007,"BSTAR":0.00021162,"MEAN_MOTION_DOT":8.42e-6,"MEAN_MOTION_DDOT":0}]
